start=new Date('2022-05-25T00:00:00.000Z').valueOf();
sats=[{"LAUNCH_DATE":"2022-05-13","OBJECT_TYPE":"PAYLOAD","TLE_LINE2":"2 52580  53.2172 238.6719 0001744  28.6409  67.7565 15.71391727  2273","GP_ID":"204430509","RA_OF_ASC_NODE":"238.6719","MEAN_MOTION":"15.71391727","TLE_LINE1":"1 52580U 22051AW  22144.91667824 -.00829831  00000-0 -70409-2 0  9991","APOAPSIS":"356.095","NORAD_CAT_ID":"52580","CLASSIFICATION_TYPE":"U","INCLINATION":"53.2172","DECAY_DATE":null,"PERIOD":"91.639","MEAN_ELEMENT_THEORY":"SGP4","RCS_SIZE":"MEDIUM","ELEMENT_SET_NO":"999","OBJECT_NAME":"STARLINK-3919","COUNTRY_CODE":"US","SITE":"AFWTR","TIME_SYSTEM":"UTC","BSTAR":"-0.00704090000000","SEMIMAJOR_AXIS":"6733.056","MEAN_ANOMALY":"67.7565","CENTER_NAME":"EARTH","PERIAPSIS":"353.746","EPOCH":"2022-05-24T22:00:00.999936","OBJECT_ID":"2022-051AW","EPHEMERIS_TYPE":"0","REV_AT_EPOCH":"227","MEAN_MOTION_DDOT":"0.0000000000000","ECCENTRICITY":"0.00017440","REF_FRAME":"TEME","ARG_OF_PERICENTER":"28.6409","MEAN_MOTION_DOT":"-0.00829831","FILE":"3462614"},{"COUNTRY_CODE":"US","SITE":"AFWTR","TIME_SYSTEM":"UTC","BSTAR":"-0.00100480000000","SEMIMAJOR_AXIS":"6727.681","CENTER_NAME":"EARTH","MEAN_ANOMALY":"71.7852","PERIAPSIS":"348.396","EPHEMERIS_TYPE":"0","EPOCH":"2022-05-24T22:00:00.999936","OBJECT_ID":"2022-051AX","REV_AT_EPOCH":"227","ECCENTRICITY":"0.00017100","MEAN_MOTION_DDOT":"0.0000000000000","REF_FRAME":"TEME","ARG_OF_PERICENTER":"30.5708","MEAN_MOTION_DOT":"-0.00139775","FILE":"3462614","OBJECT_TYPE":"PAYLOAD","LAUNCH_DATE":"2022-05-13","TLE_LINE2":"2 52581  53.2182 238.6640 0001710  30.5708  71.7852 15.73275093  2278","RA_OF_ASC_NODE":"238.6640","GP_ID":"204430515","MEAN_MOTION":"15.73275093","TLE_LINE1":"1 52581U 22051AX  22144.91667824 -.00139775  00000-0 -10048-2 0  9996","APOAPSIS":"350.697","NORAD_CAT_ID":"52581","CLASSIFICATION_TYPE":"U","DECAY_DATE":null,"INCLINATION":"53.2182","RCS_SIZE":"MEDIUM","MEAN_ELEMENT_THEORY":"SGP4","PERIOD":"91.529","ELEMENT_SET_NO":"999","OBJECT_NAME":"STARLINK-3915"},{"REF_FRAME":"TEME","FILE":"3462614","MEAN_MOTION_DOT":"-0.00066818","ARG_OF_PERICENTER":"32.2934","EPHEMERIS_TYPE":"0","EPOCH":"2022-05-24T22:00:00.999936","OBJECT_ID":"2022-051AY","PERIAPSIS":"348.266","ECCENTRICITY":"0.00019970","MEAN_MOTION_DDOT":"0.0000000000000","REV_AT_EPOCH":"227","BSTAR":"-0.00047432000000","TIME_SYSTEM":"UTC","CENTER_NAME":"EARTH","MEAN_ANOMALY":"68.2311","SEMIMAJOR_AXIS":"6727.745","SITE":"AFWTR","COUNTRY_CODE":"US","RCS_SIZE":"MEDIUM","PERIOD":"91.530","MEAN_ELEMENT_THEORY":"SGP4","DECAY_DATE":null,"INCLINATION":"53.2176","OBJECT_NAME":"STARLINK-3886","ELEMENT_SET_NO":"999","NORAD_CAT_ID":"52582","APOAPSIS":"350.953","CLASSIFICATION_TYPE":"U","TLE_LINE1":"1 52582U 22051AY  22144.91667824 -.00066818  00000-0 -47432-3 0  9992","MEAN_MOTION":"15.73252768","RA_OF_ASC_NODE":"238.6664","GP_ID":"204431009","TLE_LINE2":"2 52582  53.2176 238.6664 0001997  32.2934  68.2311 15.73252768  2270","OBJECT_TYPE":"PAYLOAD","LAUNCH_DATE":"2022-05-13"},{"NORAD_CAT_ID":"52583","APOAPSIS":"350.946","CLASSIFICATION_TYPE":"U","PERIOD":"91.530","MEAN_ELEMENT_THEORY":"SGP4","RCS_SIZE":"MEDIUM","DECAY_DATE":null,"INCLINATION":"53.2181","OBJECT_NAME":"STARLINK-3895","ELEMENT_SET_NO":"999","TLE_LINE2":"2 52583  53.2181 238.6623 0001992  24.9294  77.9510 15.73254296  2270","LAUNCH_DATE":"2022-05-13","OBJECT_TYPE":"PAYLOAD","TLE_LINE1":"1 52583U 22051AZ  22144.91667824 -.00084721  00000-0 -60384-3 0  9997","MEAN_MOTION":"15.73254296","GP_ID":"204431017","RA_OF_ASC_NODE":"238.6623","EPOCH":"2022-05-24T22:00:00.999936","OBJECT_ID":"2022-051AZ","EPHEMERIS_TYPE":"0","PERIAPSIS":"348.265","MEAN_MOTION_DDOT":"0.0000000000000","ECCENTRICITY":"0.00019920","REV_AT_EPOCH":"227","REF_FRAME":"TEME","FILE":"3462614","ARG_OF_PERICENTER":"24.9294","MEAN_MOTION_DOT":"-0.00084721","SITE":"AFWTR","COUNTRY_CODE":"US","BSTAR":"-0.00060384000000","TIME_SYSTEM":"UTC","MEAN_ANOMALY":"77.9510","CENTER_NAME":"EARTH","SEMIMAJOR_AXIS":"6727.740"},{"RCS_SIZE":"MEDIUM","PERIOD":"91.531","MEAN_ELEMENT_THEORY":"SGP4","DECAY_DATE":null,"INCLINATION":"53.2176","OBJECT_NAME":"STARLINK-3922","ELEMENT_SET_NO":"999","NORAD_CAT_ID":"52584","APOAPSIS":"350.991","CLASSIFICATION_TYPE":"U","MEAN_MOTION":"15.73242041","TLE_LINE1":"1 52584U 22051BA  22144.91667824 -.00139507  00000-0 -10042-2 0  9996","RA_OF_ASC_NODE":"238.6642","GP_ID":"204430538","TLE_LINE2":"2 52584  53.2176 238.6642 0002007  32.7295  69.0831 15.73242041  2275","LAUNCH_DATE":"2022-05-13","OBJECT_TYPE":"PAYLOAD","REF_FRAME":"TEME","FILE":"3462616","MEAN_MOTION_DOT":"-0.00139507","ARG_OF_PERICENTER":"32.7295","EPHEMERIS_TYPE":"0","OBJECT_ID":"2022-051BA","EPOCH":"2022-05-24T22:00:00.999936","PERIAPSIS":"348.290","ECCENTRICITY":"0.00020070","MEAN_MOTION_DDOT":"0.0000000000000","REV_AT_EPOCH":"227","BSTAR":"-0.00100420000000","TIME_SYSTEM":"UTC","CENTER_NAME":"EARTH","MEAN_ANOMALY":"69.0831","SEMIMAJOR_AXIS":"6727.775","SITE":"AFWTR","COUNTRY_CODE":"US"},{"ECCENTRICITY":"0.00020980","MEAN_MOTION_DDOT":"0.0000000000000","REV_AT_EPOCH":"227","EPHEMERIS_TYPE":"0","OBJECT_ID":"2022-051BB","EPOCH":"2022-05-24T22:00:00.999936","PERIAPSIS":"348.164","FILE":"3462616","MEAN_MOTION_DOT":"-0.00069369","ARG_OF_PERICENTER":"26.7781","REF_FRAME":"TEME","SITE":"AFWTR","COUNTRY_CODE":"US","CENTER_NAME":"EARTH","MEAN_ANOMALY":"77.3821","SEMIMAJOR_AXIS":"6727.710","BSTAR":"-0.00049248000000","TIME_SYSTEM":"UTC","CLASSIFICATION_TYPE":"U","NORAD_CAT_ID":"52585","APOAPSIS":"350.987","OBJECT_NAME":"STARLINK-3906","ELEMENT_SET_NO":"999","RCS_SIZE":"MEDIUM","MEAN_ELEMENT_THEORY":"SGP4","PERIOD":"91.529","DECAY_DATE":null,"INCLINATION":"53.2179","TLE_LINE2":"2 52585  53.2179 238.6598 0002098  26.7781  77.3821 15.73264909  2270","LAUNCH_DATE":"2022-05-13","OBJECT_TYPE":"PAYLOAD","TLE_LINE1":"1 52585U 22051BB  22144.91667824 -.00069369  00000-0 -49248-3 0  9996","MEAN_MOTION":"15.73264909","RA_OF_ASC_NODE":"238.6598","GP_ID":"204430542"},{"NORAD_CAT_ID":"52586","APOAPSIS":"350.919","CLASSIFICATION_TYPE":"U","PERIOD":"91.528","MEAN_ELEMENT_THEORY":"SGP4","RCS_SIZE":"MEDIUM","INCLINATION":"53.2174","DECAY_DATE":null,"OBJECT_NAME":"STARLINK-3910","ELEMENT_SET_NO":"999","TLE_LINE2":"2 52586  53.2174 238.6613 0002101  43.5568  59.7367 15.73289407  2278","OBJECT_TYPE":"PAYLOAD","LAUNCH_DATE":"2022-05-13","TLE_LINE1":"1 52586U 22051BC  22144.91667824 -.00009540  00000-0 -63366-4 0  9990","MEAN_MOTION":"15.73289407","GP_ID":"204430534","RA_OF_ASC_NODE":"238.6613","EPOCH":"2022-05-24T22:00:00.999936","OBJECT_ID":"2022-051BC","EPHEMERIS_TYPE":"0","PERIAPSIS":"348.092","MEAN_MOTION_DDOT":"0.0000000000000","ECCENTRICITY":"0.00021010","REV_AT_EPOCH":"227","REF_FRAME":"TEME","FILE":"3462616","ARG_OF_PERICENTER":"43.5568","MEAN_MOTION_DOT":"-0.00009540","SITE":"AFWTR","COUNTRY_CODE":"US","BSTAR":"-0.00006336600000","TIME_SYSTEM":"UTC","MEAN_ANOMALY":"59.7367","CENTER_NAME":"EARTH","SEMIMAJOR_AXIS":"6727.640"},{"REV_AT_EPOCH":"227","ECCENTRICITY":"0.00016550","MEAN_MOTION_DDOT":"0.0000000000000","PERIAPSIS":"348.458","EPHEMERIS_TYPE":"0","OBJECT_ID":"2022-051BD","EPOCH":"2022-05-24T22:00:00.999936","ARG_OF_PERICENTER":"24.4813","MEAN_MOTION_DOT":"-0.00119583","FILE":"3462614","REF_FRAME":"TEME","COUNTRY_CODE":"US","SITE":"AFWTR","SEMIMAJOR_AXIS":"6727.707","CENTER_NAME":"EARTH","MEAN_ANOMALY":"80.2590","TIME_SYSTEM":"UTC","BSTAR":"-0.00085729000000","CLASSIFICATION_TYPE":"U","APOAPSIS":"350.685","NORAD_CAT_ID":"52587","ELEMENT_SET_NO":"999","OBJECT_NAME":"STARLINK-3867","INCLINATION":"53.2184","DECAY_DATE":null,"RCS_SIZE":"MEDIUM","MEAN_ELEMENT_THEORY":"SGP4","PERIOD":"91.529","LAUNCH_DATE":"2022-05-13","OBJECT_TYPE":"PAYLOAD","TLE_LINE2":"2 52587  53.2184 238.6588 0001655  24.4813  80.2590 15.73266099  2274","RA_OF_ASC_NODE":"238.6588","GP_ID":"204430511","TLE_LINE1":"1 52587U 22051BD  22144.91667824 -.00119583  00000-0 -85729-3 0  9996","MEAN_MOTION":"15.73266099"},{"SITE":"AFWTR","COUNTRY_CODE":"US","MEAN_ANOMALY":"74.7274","CENTER_NAME":"EARTH","SEMIMAJOR_AXIS":"6727.631","BSTAR":"-0.00099053000000","TIME_SYSTEM":"UTC","MEAN_MOTION_DDOT":"0.0000000000000","ECCENTRICITY":"0.00016860","REV_AT_EPOCH":"227","OBJECT_ID":"2022-051BE","EPOCH":"2022-05-24T22:00:00.999936","EPHEMERIS_TYPE":"0","PERIAPSIS":"348.362","FILE":"3462617","ARG_OF_PERICENTER":"30.6423","MEAN_MOTION_DOT":"-0.00137932","REF_FRAME":"TEME","TLE_LINE2":"2 52588  53.2180 238.6570 0001686  30.6423  74.7274 15.73292740  2271","LAUNCH_DATE":"2022-05-13","OBJECT_TYPE":"PAYLOAD","MEAN_MOTION":"15.73292740","TLE_LINE1":"1 52588U 22051BE  22144.91667824 -.00137932  00000-0 -99053-3 0  9990","GP_ID":"204430545","RA_OF_ASC_NODE":"238.6570","CLASSIFICATION_TYPE":"U","NORAD_CAT_ID":"52588","APOAPSIS":"350.630","OBJECT_NAME":"STARLINK-3917","ELEMENT_SET_NO":"999","MEAN_ELEMENT_THEORY":"SGP4","PERIOD":"91.528","RCS_SIZE":"LARGE","INCLINATION":"53.2180","DECAY_DATE":null},{"CLASSIFICATION_TYPE":"U","NORAD_CAT_ID":"52598","APOAPSIS":"350.283","OBJECT_NAME":"STARLINK-4019","ELEMENT_SET_NO":"999","RCS_SIZE":null,"MEAN_ELEMENT_THEORY":"SGP4","PERIOD":"91.529","INCLINATION":"53.2153","DECAY_DATE":null,"TLE_LINE2":"2 52598  53.2153  29.7408 0001100 103.7835 301.4378 15.73276132  1979","OBJECT_TYPE":"PAYLOAD","LAUNCH_DATE":"2022-05-14","TLE_LINE1":"1 52598U 22052A   22144.91667824 -.00113056  00000-0 -80934-3 0  9991","MEAN_MOTION":"15.73276132","RA_OF_ASC_NODE":"29.7408","GP_ID":"204430666","ECCENTRICITY":"0.00011000","MEAN_MOTION_DDOT":"0.0000000000000","REV_AT_EPOCH":"197","EPHEMERIS_TYPE":"0","EPOCH":"2022-05-24T22:00:00.999936","OBJECT_ID":"2022-052A","PERIAPSIS":"348.803","FILE":"3462629","ARG_OF_PERICENTER":"103.7835","MEAN_MOTION_DOT":"-0.00113056","REF_FRAME":"TEME","SITE":"AFETR","COUNTRY_CODE":"US","CENTER_NAME":"EARTH","MEAN_ANOMALY":"301.4378","SEMIMAJOR_AXIS":"6727.678","BSTAR":"-0.00080934000000","TIME_SYSTEM":"UTC"}];
